SL-14 R/B               
1 21423U 91042B   26040.05902141  .00000409  00000+0  48793-4 0  9999
2 21423  82.4897 247.0366 0016512 340.1417  19.9152 14.81801623848837
ERS-1                   
1 21574U 91050A   26040.47567206  .00000404  00000+0  14401-3 0  9993
2 21574  98.7896  58.0007 0030926 286.5637  73.2154 14.39426079811675
ARIANE 40 R/B           
1 21610U 91050F   26040.10827906  .00000323  00000+0  10934-3 0  9997
2 21610  98.2074  93.4089 0003797 144.5386 215.6057 14.42872019814874
INTERCOSMOS 25          
1 21819U 91086A   26040.25636529  .00001448  00000+0  28117-3 0  9993
2 21819  82.6085 327.1899 1486777 178.1859 182.5555 12.11920357493244
SL-8 R/B                
1 21876U 92008B   26040.22959469  .00000041  00000+0  26879-4 0  9991
2 21876  82.9262 288.9507 0033859 212.5333 272.2458 13.75969681705503
SL-8 R/B                
1 21938U 92020B   26040.47161500  .00000138  00000+0  12754-3 0  9995
2 21938  82.9331 174.7060 0029261  19.1496  53.1263 13.75545374697259
USA 81                  
1 21949U 92023A   26040.36632273  .00000253  00000+0  86226-4 0  9992
2 21949  85.0120 147.7727 0002626 102.9409 257.2077 14.32357562 90736
COSMOS 2219             
1 22219U 92076A   26040.50856470 -.00000076  00000+0 -14906-4 0  9995
2 22219  71.0582  76.9836 0020291 245.6996 114.2007 14.14076488714397
SL-16 R/B               
1 22220U 92076B   26040.51818788  .00000020  00000+0  33781-4 0  9997
2 22220  70.9979 247.7171 0011441 146.7806 228.2159 14.16855940717842
COSMOS 2221             
1 22236U 92080A   26040.21321550  .00002630  00000+0  23143-3 0  9991
2 22236  82.5055 306.3535 0012913 291.8320  68.1528 14.96087806776535
SL-16 R/B               
1 22285U 92093B   26040.47141530 -.00000040  00000+0  40952-5 0  9998
2 22285  71.0200  63.5052 0005163 323.4452  36.6318 14.15441002709162
COSMOS 2228             
1 22286U 92094A   26040.44870857  .00002063  00000+0  17614-3 0  9991
2 22286  82.5156 264.3538 0019015  40.6185 319.6452 14.97060541771833
