CCSDS_OMM_VERS = 2.0
CREATION_DATE  = 
ORIGINATOR     = 

OBJECT_NAME    = SL-14 R/B
OBJECT_ID      = 1991-042B
CENTER_NAME    = EARTH
REF_FRAME      = TEME
TIME_SYSTEM    = UTC
MEAN_ELEMENT_THEORY = SGP/SGP4

EPOCH          = 2026-02-09T01:24:59.449824
MEAN_MOTION    = 14.81801623
ECCENTRICITY   = .00165125
INCLINATION    = 82.4897
RA_OF_ASC_NODE = 247.0366
ARG_OF_PERICENTER = 340.1417
MEAN_ANOMALY   = 19.9152

EPHEMERIS_TYPE = 0
CLASSIFICATION_TYPE = U
NORAD_CAT_ID   = 21423
ELEMENT_SET_NO = 999
REV_AT_EPOCH   = 84883
BSTAR          = .4879265E-4
MEAN_MOTION_DOT = .409E-5
MEAN_MOTION_DDOT = 0

CCSDS_OMM_VERS = 2.0
CREATION_DATE  = 
ORIGINATOR     = 

OBJECT_NAME    = ERS-1
OBJECT_ID      = 1991-050A
CENTER_NAME    = EARTH
REF_FRAME      = TEME
TIME_SYSTEM    = UTC
MEAN_ELEMENT_THEORY = SGP/SGP4

EPOCH          = 2026-02-09T11:24:58.065984
MEAN_MOTION    = 14.39426079
ECCENTRICITY   = .0030926
INCLINATION    = 98.7896
RA_OF_ASC_NODE = 58.0007
ARG_OF_PERICENTER = 286.5637
MEAN_ANOMALY   = 73.2154

EPHEMERIS_TYPE = 0
CLASSIFICATION_TYPE = U
NORAD_CAT_ID   = 21574
ELEMENT_SET_NO = 999
REV_AT_EPOCH   = 81167
BSTAR          = .14401E-3
MEAN_MOTION_DOT = .404E-5
MEAN_MOTION_DDOT = 0

CCSDS_OMM_VERS = 2.0
CREATION_DATE  = 
ORIGINATOR     = 

OBJECT_NAME    = ARIANE 40 R/B
OBJECT_ID      = 1991-050F
CENTER_NAME    = EARTH
REF_FRAME      = TEME
TIME_SYSTEM    = UTC
MEAN_ELEMENT_THEORY = SGP/SGP4

EPOCH          = 2026-02-09T02:35:55.310784
MEAN_MOTION    = 14.42872019
ECCENTRICITY   = .00037972
INCLINATION    = 98.2074
RA_OF_ASC_NODE = 93.4089
ARG_OF_PERICENTER = 144.5386
MEAN_ANOMALY   = 215.6057

EPHEMERIS_TYPE = 0
CLASSIFICATION_TYPE = U
NORAD_CAT_ID   = 21610
ELEMENT_SET_NO = 999
REV_AT_EPOCH   = 81487
BSTAR          = .10933648E-3
MEAN_MOTION_DOT = .323E-5
MEAN_MOTION_DDOT = 0

CCSDS_OMM_VERS = 2.0
CREATION_DATE  = 
ORIGINATOR     = 

OBJECT_NAME    = INTERCOSMOS 25
OBJECT_ID      = 1991-086A
CENTER_NAME    = EARTH
REF_FRAME      = TEME
TIME_SYSTEM    = UTC
MEAN_ELEMENT_THEORY = SGP/SGP4

EPOCH          = 2026-02-09T06:09:09.961056
MEAN_MOTION    = 12.11920357
ECCENTRICITY   = .1486777
INCLINATION    = 82.6085
RA_OF_ASC_NODE = 327.1899
ARG_OF_PERICENTER = 178.1859
MEAN_ANOMALY   = 182.5555

EPHEMERIS_TYPE = 0
CLASSIFICATION_TYPE = U
NORAD_CAT_ID   = 21819
ELEMENT_SET_NO = 999
REV_AT_EPOCH   = 49324
BSTAR          = .28117E-3
MEAN_MOTION_DOT = .1448E-4
MEAN_MOTION_DDOT = 0

CCSDS_OMM_VERS = 2.0
CREATION_DATE  = 
ORIGINATOR     = 

OBJECT_NAME    = SL-8 R/B
OBJECT_ID      = 1992-008B
CENTER_NAME    = EARTH
REF_FRAME      = TEME
TIME_SYSTEM    = UTC
MEAN_ELEMENT_THEORY = SGP/SGP4

EPOCH          = 2026-02-09T05:30:36.981216
MEAN_MOTION    = 13.75969681
ECCENTRICITY   = .0033859
INCLINATION    = 82.9262
RA_OF_ASC_NODE = 288.9507
ARG_OF_PERICENTER = 212.5333
MEAN_ANOMALY   = 272.2458

EPHEMERIS_TYPE = 0
CLASSIFICATION_TYPE = U
NORAD_CAT_ID   = 21876
ELEMENT_SET_NO = 999
REV_AT_EPOCH   = 70550
BSTAR          = .26879E-4
MEAN_MOTION_DOT = .41E-6
MEAN_MOTION_DDOT = 0

CCSDS_OMM_VERS = 2.0
CREATION_DATE  = 
ORIGINATOR     = 

OBJECT_NAME    = SL-8 R/B
OBJECT_ID      = 1992-020B
CENTER_NAME    = EARTH
REF_FRAME      = TEME
TIME_SYSTEM    = UTC
MEAN_ELEMENT_THEORY = SGP/SGP4

EPOCH          = 2026-02-09T11:19:07.536000
MEAN_MOTION    = 13.75545374
ECCENTRICITY   = .0029261
INCLINATION    = 82.9331
RA_OF_ASC_NODE = 174.7060
ARG_OF_PERICENTER = 19.1496
MEAN_ANOMALY   = 53.1263

EPHEMERIS_TYPE = 0
CLASSIFICATION_TYPE = U
NORAD_CAT_ID   = 21938
ELEMENT_SET_NO = 999
REV_AT_EPOCH   = 69725
BSTAR          = .12754E-3
MEAN_MOTION_DOT = .138E-5
MEAN_MOTION_DDOT = 0

CCSDS_OMM_VERS = 2.0
CREATION_DATE  = 
ORIGINATOR     = 

OBJECT_NAME    = USA 81
OBJECT_ID      = 1992-023A
CENTER_NAME    = EARTH
REF_FRAME      = TEME
TIME_SYSTEM    = UTC
MEAN_ELEMENT_THEORY = SGP/SGP4

EPOCH          = 2026-02-09T08:47:30.283872
MEAN_MOTION    = 14.32357562
ECCENTRICITY   = .0002626
INCLINATION    = 85.0120
RA_OF_ASC_NODE = 147.7727
ARG_OF_PERICENTER = 102.9409
MEAN_ANOMALY   = 257.2077

EPHEMERIS_TYPE = 0
CLASSIFICATION_TYPE = U
NORAD_CAT_ID   = 21949
ELEMENT_SET_NO = 999
REV_AT_EPOCH   = 9073
BSTAR          = .86226E-4
MEAN_MOTION_DOT = .253E-5
MEAN_MOTION_DDOT = 0

CCSDS_OMM_VERS = 2.0
CREATION_DATE  = 
ORIGINATOR     = 

OBJECT_NAME    = COSMOS 2219
OBJECT_ID      = 1992-076A
CENTER_NAME    = EARTH
REF_FRAME      = TEME
TIME_SYSTEM    = UTC
MEAN_ELEMENT_THEORY = SGP/SGP4

EPOCH          = 2026-02-09T12:12:19.990080
MEAN_MOTION    = 14.14076488
ECCENTRICITY   = .0020291
INCLINATION    = 71.0582
RA_OF_ASC_NODE = 76.9836
ARG_OF_PERICENTER = 245.6996
MEAN_ANOMALY   = 114.2007

EPHEMERIS_TYPE = 0
CLASSIFICATION_TYPE = U
NORAD_CAT_ID   = 22219
ELEMENT_SET_NO = 999
REV_AT_EPOCH   = 71439
BSTAR          = -.14906E-4
MEAN_MOTION_DOT = -.76E-6
MEAN_MOTION_DDOT = 0

CCSDS_OMM_VERS = 2.0
CREATION_DATE  = 
ORIGINATOR     = 

OBJECT_NAME    = SL-16 R/B
OBJECT_ID      = 1992-076B
CENTER_NAME    = EARTH
REF_FRAME      = TEME
TIME_SYSTEM    = UTC
MEAN_ELEMENT_THEORY = SGP/SGP4

EPOCH          = 2026-02-09T12:26:11.432832
MEAN_MOTION    = 14.16855940
ECCENTRICITY   = .0011441
INCLINATION    = 70.9979
RA_OF_ASC_NODE = 247.7171
ARG_OF_PERICENTER = 146.7806
MEAN_ANOMALY   = 228.2159

EPHEMERIS_TYPE = 0
CLASSIFICATION_TYPE = U
NORAD_CAT_ID   = 22220
ELEMENT_SET_NO = 999
REV_AT_EPOCH   = 71784
BSTAR          = .33781E-4
MEAN_MOTION_DOT = .2E-6
MEAN_MOTION_DDOT = 0

CCSDS_OMM_VERS = 2.0
CREATION_DATE  = 
ORIGINATOR     = 

OBJECT_NAME    = COSMOS 2221
OBJECT_ID      = 1992-080A
CENTER_NAME    = EARTH
REF_FRAME      = TEME
TIME_SYSTEM    = UTC
MEAN_ELEMENT_THEORY = SGP/SGP4

EPOCH          = 2026-02-09T05:07:01.819200
MEAN_MOTION    = 14.96087806
ECCENTRICITY   = .0012913
INCLINATION    = 82.5055
RA_OF_ASC_NODE = 306.3535
ARG_OF_PERICENTER = 291.8320
MEAN_ANOMALY   = 68.1528

EPHEMERIS_TYPE = 0
CLASSIFICATION_TYPE = U
NORAD_CAT_ID   = 22236
ELEMENT_SET_NO = 999
REV_AT_EPOCH   = 77653
BSTAR          = .23143E-3
MEAN_MOTION_DOT = .263E-4
MEAN_MOTION_DDOT = 0

CCSDS_OMM_VERS = 2.0
CREATION_DATE  = 
ORIGINATOR     = 

OBJECT_NAME    = SL-16 R/B
OBJECT_ID      = 1992-093B
CENTER_NAME    = EARTH
REF_FRAME      = TEME
TIME_SYSTEM    = UTC
MEAN_ELEMENT_THEORY = SGP/SGP4

EPOCH          = 2026-02-09T11:18:50.281920
MEAN_MOTION    = 14.15441002
ECCENTRICITY   = .0005163
INCLINATION    = 71.0200
RA_OF_ASC_NODE = 63.5052
ARG_OF_PERICENTER = 323.4452
MEAN_ANOMALY   = 36.6318

EPHEMERIS_TYPE = 0
CLASSIFICATION_TYPE = U
NORAD_CAT_ID   = 22285
ELEMENT_SET_NO = 999
REV_AT_EPOCH   = 70916
BSTAR          = .40952E-5
MEAN_MOTION_DOT = -.4E-6
MEAN_MOTION_DDOT = 0

CCSDS_OMM_VERS = 2.0
CREATION_DATE  = 
ORIGINATOR     = 

OBJECT_NAME    = COSMOS 2228
OBJECT_ID      = 1992-094A
CENTER_NAME    = EARTH
REF_FRAME      = TEME
TIME_SYSTEM    = UTC
MEAN_ELEMENT_THEORY = SGP/SGP4

EPOCH          = 2026-02-09T10:46:08.420448
MEAN_MOTION    = 14.97060541
ECCENTRICITY   = .0019015
INCLINATION    = 82.5156
RA_OF_ASC_NODE = 264.3538
ARG_OF_PERICENTER = 40.6185
MEAN_ANOMALY   = 319.6452

EPHEMERIS_TYPE = 0
CLASSIFICATION_TYPE = U
NORAD_CAT_ID   = 22286
ELEMENT_SET_NO = 999
REV_AT_EPOCH   = 77183
BSTAR          = .17614E-3
MEAN_MOTION_DOT = .2063E-4
MEAN_MOTION_DDOT = 0

